EUTELSAT 7A             
1 28187U 04008A   26005.48319590  .00000099  00000+0  00000+0 0  9996
2 28187   5.4183  73.9755 0001539 247.0763 178.7523  1.00271829 79720
EUTELSAT 174A           
1 28924U 05052A   26005.42128476  .00000006  00000+0  00000+0 0  9998
2 28924   3.8075  78.5692 0006281 209.7101 142.3707  1.00272546 50695
EUTELSAT HOTBIRD 13B    
1 29270U 06032A   26005.32196413  .00000154  00000+0  00000+0 0  9991
2 29270   1.2420  84.1462 0003559 206.8680 322.9009  1.00273854 45675
EUTELSAT HOTBIRD 13C    
1 33459U 08065A   26005.44815162 -.00000285  00000+0  00000+0 0  9991
2 33459   2.5330  81.1523 0003674 207.4874 287.4025  1.00268630 45712
EUTELSAT 36B            
1 36101U 09065A   26005.25410369  .00000112  00000+0  00000+0 0  9996
2 36101   0.0840  60.1118 0005745 223.7497 322.9558  1.00269671 59074
EUTELSAT KA-SAT 9A      
1 37258U 10069A   26004.60392637  .00000062  00000+0  00000+0 0  9995
2 37258   0.0508 338.3378 0001630 198.7962 153.4898  1.00272711 42361
EUTELSAT 7 WEST A       
1 37816U 11051A   26005.38531787 -.00000061  00000+0  00000+0 0  9994
2 37816   0.0656  18.7615 0004861 221.4992 356.1163  1.00271653 52243
EUTELSAT 16A            
1 37836U 11057A   26005.31858412  .00000103  00000+0  00000+0 0  9998
2 37836   0.0578  16.9710 0005510 269.1602 309.4597  1.00270403  5694
